EARTHCARE               
1 59908U 24101A   24281.83246223  .00045734  00000+0  62022-3 0  9993
2 59908  96.9922  47.1250 0002230  75.2655 284.8849 15.57528424 20509
